OBJECT_NAME,OBJECT_ID,EPOCH,MEAN_MOTION,ECCENTRICITY,INCLINATION,RA_OF_ASC_NODE,ARG_OF_PERICENTER,MEAN_ANOMALY,EPHEMERIS_TYPE,CLASSIFICATION_TYPE,NORAD_CAT_ID,ELEMENT_SET_NO,REV_AT_EPOCH,BSTAR,MEAN_MOTION_DOT,MEAN_MOTION_DDOT
TIANMU-1 20,2023-208B,2026-07-21T14:14:00.823776,15.33229078,.00069556,97.4465,319.7566,188.5077,171.6049,0,U,58661,999,14269,.22330303E-3,.7094E-4,0
TIANMU-1 21,2023-208C,2026-07-21T14:15:01.806624,15.35630113,.00073277,97.4527,322.5895,181.3256,178.7969,0,U,58662,999,14284,.26356335E-3,.9056E-4,0
TIANMU-1 22,2023-208D,2026-07-21T13:49:05.918880,15.31485226,.00033566,97.4520,318.9741,192.7495,167.3662,0,U,58663,999,14259,.21194534E-3,.6366E-4,0
TIANMU-1 15,2024-004A,2026-07-21T15:14:24.641088,15.26956511,.00066121,97.4678,28.8267,202.7219,157.3728,0,U,58700,999,14103,.17388456E-3,.4529E-4,0
TIANMU-1 16,2024-004B,2026-07-21T14:58:36.814080,15.27060026,.00048838,97.4626,28.0289,216.8846,143.2058,0,U,58701,999,14103,.17207538E-3,.4494E-4,0
TIANMU-1 17,2024-004C,2026-07-21T14:37:43.333248,15.27056992,.00042719,97.4654,28.5119,221.8782,138.2131,0,U,58702,999,14102,.1705489E-3,.4453E-4,0
TIANMU-1 18,2024-004D,2026-07-21T15:38:10.268736,15.26971596,.00043456,97.4670,28.8171,197.7360,162.3728,0,U,58703,999,14103,.17193234E-3,.4478E-4,0
INSAT-3DS,2024-033A,2026-07-21T15:27:20.292768,1.00270756,.00013342,0.0743,263.4911,220.4507,129.3411,0,U,58990,999,4741,0,-.153E-5,0
METEOR-M2 4,2024-039A,2026-07-21T15:37:24.588192,14.22432671,.00082232,98.7030,161.5196,72.7629,287.4448,0,U,59051,999,12416,.26671949E-4,.16E-6,0
GOES 19,2024-119A,2026-07-21T14:26:05.736192,1.00272391,.000031,0.0195,133.5182,43.2909,263.8789,0,U,60133,999,730,0,-.247E-5,0
MTG-S1,2025-143A,2026-07-21T14:47:26.190240,1.00275561,.00031963,0.5813,346.5712,256.9285,277.3930,0,U,64723,999,376,0,-.5E-7,0
METOP-SGA1,2025-172A,2026-07-14T18:20:46.629312,14.19819127,.00070989,98.6631,254.9090,333.3306,26.7504,0,U,65159,999,4770,.2916334E-4,.19E-6,0
FENGYUN 3H,2025-219A,2026-07-21T08:35:34.579104,14.19925453,.00010144,98.6770,142.4639,62.9572,297.1708,0,U,65815,999,4223,.31979204E-4,.25E-6,0
