TIANMU-1 20             
1 58661U 23208B   26202.59306509  .00007094  00000+0  22330-3 0  9992
2 58661  97.4465 319.7566 0006955 188.5077 171.6049 15.33229078142691
TIANMU-1 21             
1 58662U 23208C   26202.59377091  .00009056  00000+0  26356-3 0  9999
2 58662  97.4527 322.5895 0007327 181.3256 178.7969 15.35630113142846
TIANMU-1 22             
1 58663U 23208D   26202.57576295  .00006366  00000+0  21195-3 0  9992
2 58663  97.4520 318.9741 0003356 192.7495 167.3662 15.31485226142593
TIANMU-1 15             
1 58700U 24004A   26202.63500742  .00004529  00000+0  17388-3 0  9998
2 58700  97.4678  28.8267 0006612 202.7219 157.3728 15.26956511141037
TIANMU-1 16             
1 58701U 24004B   26202.62403720  .00004494  00000+0  17208-3 0  9998
2 58701  97.4626  28.0289 0004883 216.8846 143.2058 15.27060026141035
TIANMU-1 17             
1 58702U 24004C   26202.60952932  .00004453  00000+0  17055-3 0  9996
2 58702  97.4654  28.5119 0004271 221.8782 138.2131 15.27056992141022
TIANMU-1 18             
1 58703U 24004D   26202.65150774  .00004478  00000+0  17193-3 0  9996
2 58703  97.4670  28.8171 0004345 197.7360 162.3728 15.26971596141033
INSAT-3DS               
1 58990U 24033A   26202.64398487 -.00000153  00000+0  00000+0 0  9992
2 58990   0.0743 263.4911 0001334 220.4507 129.3411  1.00270756 47419
METEOR-M2 4             
1 59051U 24039A   26202.65097903  .00000016  00000+0  26672-4 0  9992
2 59051  98.7030 161.5196 0008223  72.7629 287.4448 14.22432671124169
GOES 19                 
1 60133U 24119A   26202.60145528 -.00000247  00000+0  00000+0 0  9995
2 60133   0.0195 133.5182 0000310  43.2909 263.8789  1.00272391  7302
MTG-S1                  
1 64723U 25143A   26202.61627535 -.00000005  00000+0  00000+0 0  9998
2 64723   0.5813 346.5712 0003196 256.9285 277.3930  1.00275561  3769
METOP-SGA1              
1 65159U 25172A   26195.76442858  .00000019  00000+0  29163-4 0  9994
2 65159  98.6631 254.9090 0007098 333.3306  26.7504 14.19819127 47700
FENGYUN 3H              
1 65815U 25219A   26202.35803911  .00000025  00000+0  31979-4 0  9995
2 65815  98.6770 142.4639 0001014  62.9572 297.1708 14.19925453 42238
